[{"OBJECT_NAME":"OBJECT AD","OBJECT_ID":"2023-085AD","EPOCH":"2026-03-09T21:41:29.115744","MEAN_MOTION":15.31779154,"ECCENTRICITY":0.00101154,"INCLINATION":97.4841,"RA_OF_ASC_NODE":180.2223,"ARG_OF_PERICENTER":77.5993,"MEAN_ANOMALY":282.638,"EPHEMERIS_TYPE":0,"CLASSIFICATION_TYPE":"U","NORAD_CAT_ID":57031,"ELEMENT_SET_NO":999,"REV_AT_EPOCH":15156,"BSTAR":0.00068352515,"MEAN_MOTION_DOT":0.00020961,"MEAN_MOTION_DDOT":0},{"OBJECT_NAME":"STARLINK-35401","OBJECT_ID":"2025-235K","EPOCH":"2026-03-09T17:04:15.937248","MEAN_MOTION":15.30199024,"ECCENTRICITY":9.851e-5,"INCLINATION":53.158,"RA_OF_ASC_NODE":245.2487,"ARG_OF_PERICENTER":61.4112,"MEAN_ANOMALY":298.6988,"EPHEMERIS_TYPE":0,"CLASSIFICATION_TYPE":"U","NORAD_CAT_ID":66067,"ELEMENT_SET_NO":999,"REV_AT_EPOCH":2289,"BSTAR":0.00069840102,"MEAN_MOTION_DOT":0.00020382,"MEAN_MOTION_DDOT":0}]
